[{"spaceTrack":{"CCSDS_OMM_VERS":"2.0","COMMENT":"GENERATED VIA SPACE-TRACK.ORG API","CREATION_DATE":"2021-07-02T22:16:10","ORIGINATOR":"18 SPCS","OBJECT_NAME":"STARLINK-2207","OBJECT_ID":"2021-006J","CENTER_NAME":"EARTH","REF_FRAME":"TEME","TIME_SYSTEM":"UTC","MEAN_ELEMENT_THEORY":"SGP4","EPOCH":"2021-07-02T18:10:15.826368","MEAN_MOTION":15.14324175,"ECCENTRICITY":0.0005801,"INCLINATION":97.4933,"RA_OF_ASC_NODE":245.2021,"ARG_OF_PERICENTER":117.378,"MEAN_ANOMALY":242.8043,"EPHEMERIS_TYPE":0,"CLASSIFICATION_TYPE":"U","NORAD_CAT_ID":47421,"ELEMENT_SET_NO":999,"REV_AT_EPOCH":2439,"BSTAR":0.000016284,"MEAN_MOTION_DOT":0.00000233,"MEAN_MOTION_DDOT":0,"SEMIMAJOR_AXIS":6901.168,"PERIOD":95.092,"APOAPSIS":527.036,"PERIAPSIS":519.03,"OBJECT_TYPE":"PAYLOAD","RCS_SIZE":"LARGE","COUNTRY_CODE":"US","LAUNCH_DATE":"2021-01-24","SITE":"AFETR","DECAY_DATE":null,"DECAYED":0,"FILE":3068615,"GP_ID":180170015,"TLE_LINE0":"0 STARLINK-2207","TLE_LINE1":"1 47421U 21006J   21183.75712762  .00000233  00000-0  16284-4 0  9992","TLE_LINE2":"2 47421  97.4933 245.2021 0005801 117.3780 242.8043 15.14324175 24396"},"version":"v1.0","launch":"5fd386aa7faea57d297c86c1","longitude":15.69519720722953,"latitude":-75.46441318855184,"height_km":554.2606778188419,"velocity_kms":7.581206647044796,"id":"6014558b51e7c10006e2283a"},{"spaceTrack":{"CCSDS_OMM_VERS":"2.0","COMMENT":"GENERATED VIA SPACE-TRACK.ORG API","CREATION_DATE":"2021-07-02T22:16:10","ORIGINATOR":"18 SPCS","OBJECT_NAME":"STARLINK-2203","OBJECT_ID":"2021-006E","CENTER_NAME":"EARTH","REF_FRAME":"TEME","TIME_SYSTEM":"UTC","MEAN_ELEMENT_THEORY":"SGP4","EPOCH":"2021-07-02T18:08:16.963296","MEAN_MOTION":15.1432719,"ECCENTRICITY":0.0005369,"INCLINATION":97.4933,"RA_OF_ASC_NODE":245.2032,"ARG_OF_PERICENTER":111.3444,"MEAN_ANOMALY":248.8361,"EPHEMERIS_TYPE":0,"CLASSIFICATION_TYPE":"U","NORAD_CAT_ID":47417,"ELEMENT_SET_NO":999,"REV_AT_EPOCH":2439,"BSTAR":0.000083524,"MEAN_MOTION_DOT":0.00001465,"MEAN_MOTION_DDOT":0,"SEMIMAJOR_AXIS":6901.159,"PERIOD":95.092,"APOAPSIS":526.729,"PERIAPSIS":519.319,"OBJECT_TYPE":"PAYLOAD","RCS_SIZE":"LARGE","COUNTRY_CODE":"US","LAUNCH_DATE":"2021-01-24","SITE":"AFETR","DECAY_DATE":null,"DECAYED":0,"FILE":3068610,"GP_ID":180169947,"TLE_LINE0":"0 STARLINK-2203","TLE_LINE1":"1 47417U 21006E   21183.75575189  .00001465  00000-0  83524-4 0  9996","TLE_LINE2":"2 47417  97.4933 245.2032 0005369 111.3444 248.8361 15.14327190 24392"},"version":"v1.0","launch":"5fd386aa7faea57d297c86c1","longitude":4.962586007966647,"latitude":-68.66919445390567,"height_km":552.5286951935759,"velocity_kms":7.582202988490664,"id":"6014558b51e7c10006e22853"},{"spaceTrack":{"CCSDS_OMM_VERS":"2.0","COMMENT":"GENERATED VIA SPACE-TRACK.ORG API","CREATION_DATE":"2021-07-02T17:51:43","ORIGINATOR":"18 SPCS","OBJECT_NAME":"STARLINK-2205","OBJECT_ID":"2021-006G","CENTER_NAME":"EARTH","REF_FRAME":"TEME","TIME_SYSTEM":"UTC","MEAN_ELEMENT_THEORY":"SGP4","EPOCH":"2021-07-02T10:13:10.673472","MEAN_MOTION":15.14328366,"ECCENTRICITY":0.0005956,"INCLINATION":97.4935,"RA_OF_ASC_NODE":244.8772,"ARG_OF_PERICENTER":119.1776,"MEAN_ANOMALY":241.0052,"EPHEMERIS_TYPE":0,"CLASSIFICATION_TYPE":"U","NORAD_CAT_ID":47419,"ELEMENT_SET_NO":999,"REV_AT_EPOCH":2434,"BSTAR":0.000021534,"MEAN_MOTION_DOT":0.00000329,"MEAN_MOTION_DDOT":0,"SEMIMAJOR_AXIS":6901.155,"PERIOD":95.092,"APOAPSIS":527.131,"PERIAPSIS":518.91,"OBJECT_TYPE":"PAYLOAD","RCS_SIZE":"LARGE","COUNTRY_CODE":"US","LAUNCH_DATE":"2021-01-24","SITE":"AFETR","DECAY_DATE":null,"DECAYED":0,"FILE":3068555,"GP_ID":180168111,"TLE_LINE0":"0 STARLINK-2205","TLE_LINE1":"1 47419U 21006G   21183.42581798  .00000329  00000-0  21534-4 0  9996","TLE_LINE2":"2 47419  97.4935 244.8772 0005956 119.1776 241.0052 15.14328366 24341"},"version":"v1.0","launch":"5fd386aa7faea57d297c86c1","longitude":7.7662770015418685,"latitude":-71.030681776853,"height_km":553.4661093693794,"velocity_kms":7.581517454826968,"id":"6014558b51e7c10006e22858"},{"spaceTrack":{"CCSDS_OMM_VERS":"2.0","COMMENT":"GENERATED VIA SPACE-TRACK.ORG API","CREATION_DATE":"2021-07-02T22:16:10","ORIGINATOR":"18 SPCS","OBJECT_NAME":"STARLINK-2208","OBJECT_ID":"2021-006K","CENTER_NAME":"EARTH","REF_FRAME":"TEME","TIME_SYSTEM":"UTC","MEAN_ELEMENT_THEORY":"SGP4","EPOCH":"2021-07-02T18:07:37.270272","MEAN_MOTION":15.14341152,"ECCENTRICITY":0.0005746,"INCLINATION":97.4943,"RA_OF_ASC_NODE":245.2108,"ARG_OF_PERICENTER":114.0167,"MEAN_ANOMALY":246.1667,"EPHEMERIS_TYPE":0,"CLASSIFICATION_TYPE":"U","NORAD_CAT_ID":47422,"ELEMENT_SET_NO":999,"REV_AT_EPOCH":2439,"BSTAR":-0.00020782,"MEAN_MOTION_DOT":-0.0000387,"MEAN_MOTION_DDOT":0,"SEMIMAJOR_AXIS":6901.116,"PERIOD":95.091,"APOAPSIS":526.947,"PERIAPSIS":519.016,"OBJECT_TYPE":"PAYLOAD","RCS_SIZE":"LARGE","COUNTRY_CODE":"US","LAUNCH_DATE":"2021-01-24","SITE":"AFETR","DECAY_DATE":null,"DECAYED":0,"FILE":3068615,"GP_ID":180169793,"TLE_LINE0":"0 STARLINK-2208","TLE_LINE1":"1 47422U 21006K   21183.75529248 -.00003870  00000-0 -20782-3 0  9997","TLE_LINE2":"2 47422  97.4943 245.2108 0005746 114.0167 246.1667 15.14341152 24398"},"version":"v1.0","launch":"5fd386aa7faea57d297c86c1","longitude":2.845432972639961,"latitude":-66.41685078225085,"height_km":552.1317207586126,"velocity_kms":7.5822584312848615,"id":"6014558b51e7c10006e2285a"},{"spaceTrack":{"CCSDS_OMM_VERS":"2.0","COMMENT":"GENERATED VIA SPACE-TRACK.ORG API","CREATION_DATE":"2021-07-02T17:51:43","ORIGINATOR":"18 SPCS","OBJECT_NAME":"STARLINK-2204","OBJECT_ID":"2021-006F","CENTER_NAME":"EARTH","REF_FRAME":"TEME","TIME_SYSTEM":"UTC","MEAN_ELEMENT_THEORY":"SGP4","EPOCH":"2021-07-02T09:37:04.825920","MEAN_MOTION":15.01252185,"ECCENTRICITY":0.0005791,"INCLINATION":97.4847,"RA_OF_ASC_NODE":243.8317,"ARG_OF_PERICENTER":156.7534,"MEAN_ANOMALY":203.3954,"EPHEMERIS_TYPE":0,"CLASSIFICATION_TYPE":"U","NORAD_CAT_ID":47418,"ELEMENT_SET_NO":999,"REV_AT_EPOCH":2427,"BSTAR":0.000051543,"MEAN_MOTION_DOT":0.00000605,"MEAN_MOTION_DDOT":0,"SEMIMAJOR_AXIS":6941.171,"PERIOD":95.92,"APOAPSIS":567.056,"PERIAPSIS":559.016,"OBJECT_TYPE":"PAYLOAD","RCS_SIZE":"LARGE","COUNTRY_CODE":"US","LAUNCH_DATE":"2021-01-24","SITE":"AFETR","DECAY_DATE":null,"DECAYED":0,"FILE":3068555,"GP_ID":180167859,"TLE_LINE0":"0 STARLINK-2204","TLE_LINE1":"1 47418U 21006F   21183.40075030  .00000605  00000-0  51543-4 0  9990","TLE_LINE2":"2 47418  97.4847 243.8317 0005791 156.7534 203.3954 15.01252185 24277"},"version":"v1.0","launch":"5fd386aa7faea57d297c86c1","longitude":-21.57830087681224,"latitude":38.39280604108136,"height_km":570.2471049109135,"velocity_kms":7.578541612793058,"id":"6014558c51e7c10006e22867"},{"spaceTrack":{"CCSDS_OMM_VERS":"2.0","COMMENT":"GENERATED VIA SPACE-TRACK.ORG API","CREATION_DATE":"2021-07-02T22:16:10","ORIGINATOR":"18 SPCS","OBJECT_NAME":"STARLINK-2200","OBJECT_ID":"2021-006B","CENTER_NAME":"EARTH","REF_FRAME":"TEME","TIME_SYSTEM":"UTC","MEAN_ELEMENT_THEORY":"SGP4","EPOCH":"2021-07-02T18:06:58.365216","MEAN_MOTION":15.14318993,"ECCENTRICITY":0.0005594,"INCLINATION":97.4933,"RA_OF_ASC_NODE":245.205,"ARG_OF_PERICENTER":118.0769,"MEAN_ANOMALY":242.1029,"EPHEMERIS_TYPE":0,"CLASSIFICATION_TYPE":"U","NORAD_CAT_ID":47414,"ELEMENT_SET_NO":999,"REV_AT_EPOCH":2439,"BSTAR":0.000010684,"MEAN_MOTION_DOT":0.00000131,"MEAN_MOTION_DDOT":0,"SEMIMAJOR_AXIS":6901.184,"PERIOD":95.092,"APOAPSIS":526.909,"PERIAPSIS":519.188,"OBJECT_TYPE":"PAYLOAD","RCS_SIZE":"LARGE","COUNTRY_CODE":"US","LAUNCH_DATE":"2021-01-24","SITE":"AFETR","DECAY_DATE":null,"DECAYED":0,"FILE":3068610,"GP_ID":180169729,"TLE_LINE0":"0 STARLINK-2200","TLE_LINE1":"1 47414U 21006B   21183.75484219  .00000131  00000-0  10684-4 0  9992","TLE_LINE2":"2 47414  97.4933 245.2050 0005594 118.0769 242.1029 15.14318993 24392"},"version":"v1.0","launch":"5fd386aa7faea57d297c86c1","longitude":0.9618981694859728,"latitude":-64.01529497211338,"height_km":551.3713113332178,"velocity_kms":7.582714590951757,"id":"6014558c51e7c10006e22868"},{"spaceTrack":{"CCSDS_OMM_VERS":"2.0","COMMENT":"GENERATED VIA SPACE-TRACK.ORG API","CREATION_DATE":"2021-07-02T17:51:43","ORIGINATOR":"18 SPCS","OBJECT_NAME":"STARLINK-2201","OBJECT_ID":"2021-006C","CENTER_NAME":"EARTH","REF_FRAME":"TEME","TIME_SYSTEM":"UTC","MEAN_ELEMENT_THEORY":"SGP4","EPOCH":"2021-07-02T09:36:25.004160","MEAN_MOTION":15.01260328,"ECCENTRICITY":0.0005334,"INCLINATION":97.4844,"RA_OF_ASC_NODE":243.8277,"ARG_OF_PERICENTER":155.6863,"MEAN_ANOMALY":204.4614,"EPHEMERIS_TYPE":0,"CLASSIFICATION_TYPE":"U","NORAD_CAT_ID":47415,"ELEMENT_SET_NO":999,"REV_AT_EPOCH":2427,"BSTAR":-0.00010302,"MEAN_MOTION_DOT":-0.0000138,"MEAN_MOTION_DDOT":0,"SEMIMAJOR_AXIS":6941.146,"PERIOD":95.919,"APOAPSIS":566.713,"PERIAPSIS":559.308,"OBJECT_TYPE":"PAYLOAD","RCS_SIZE":"LARGE","COUNTRY_CODE":"US","LAUNCH_DATE":"2021-01-24","SITE":"AFETR","DECAY_DATE":null,"DECAYED":0,"FILE":3068555,"GP_ID":180168610,"TLE_LINE0":"0 STARLINK-2201","TLE_LINE1":"1 47415U 21006C   21183.40028940 -.00001380  00000-0 -10302-3 0  9995","TLE_LINE2":"2 47415  97.4844 243.8277 0005334 155.6863 204.4614 15.01260328 24275"},"version":"v1.0","launch":"5fd386aa7faea57d297c86c1","longitude":-22.160660089549772,"latitude":40.969907495779225,"height_km":570.4172518754349,"velocity_kms":7.578917680543643,"id":"6014558c51e7c10006e22869"}]